{
  "type": "FeatureCollection",
  "features": [
    {
      "type": "Feature",
      "properties": {
        "norad_id": 41330,
        "name": "COSMOS 2514 (751)",
        "group": "glo-ops",
        "lat": -62.83407107241914,
        "lon": -105.56880230069522,
        "alt_km": 19122.008758826996,
        "timestamp": "2025-12-23T05:02:12.291930+00:00",
        "meta_object_name": "COSMOS 2514 (751)",
        "meta_object_id": "2016-008A",
        "meta_epoch": "2025-12-22T20:14:18.279168",
        "meta_mean_motion": 2.13102647,
        "meta_eccentricity": 0.00116826,
        "meta_inclination": 65.1279,
        "meta_ra_of_asc_node": 319.0581,
        "meta_arg_of_pericenter": 220.1101,
        "meta_mean_anomaly": 139.8009,
        "meta_ephemeris_type": 0,
        "meta_classification_type": "U",
        "meta_norad_cat_id": 41330,
        "meta_element_set_no": 999,
        "meta_rev_at_epoch": 7686,
        "meta_bstar": 0,
        "meta_mean_motion_dot": -3.8e-07,
        "meta_mean_motion_ddot": 0,
        "tle_line1": "1 41330U 16008A   25356.84326712 -.00000038  00000+0  00000+0 0  9990",
        "tle_line2": "2 41330  65.1279 319.0581 0011682 220.1101 139.8009  2.13102647 76868"
      },
      "geometry": {
        "type": "Point",
        "coordinates": [
          -105.56880230069522,
          -62.83407107241914
        ]
      }
    },
    {
      "type": "Feature",
      "properties": {
        "norad_id": 42939,
        "name": "COSMOS 2522 (752)",
        "group": "glo-ops",
        "lat": 39.66609229963725,
        "lon": -138.32230636421517,
        "alt_km": 19141.367816555892,
        "timestamp": "2025-12-23T05:02:12.291941+00:00",
        "meta_object_name": "COSMOS 2522 (752)",
        "meta_object_id": "2017-055A",
        "meta_epoch": "2025-12-22T05:05:46.710816",
        "meta_mean_motion": 2.13102066,
        "meta_eccentricity": 0.00062992,
        "meta_inclination": 64.0765,
        "meta_ra_of_asc_node": 197.9063,
        "meta_arg_of_pericenter": 223.6863,
        "meta_mean_anomaly": 136.3303,
        "meta_ephemeris_type": 0,
        "meta_classification_type": "U",
        "meta_norad_cat_id": 42939,
        "meta_element_set_no": 999,
        "meta_rev_at_epoch": 6420,
        "meta_bstar": 0,
        "meta_mean_motion_dot": 9.5e-07,
        "meta_mean_motion_ddot": 0,
        "tle_line1": "1 42939U 17055A   25356.21234619  .00000095  00000+0  00000+0 0  9996",
        "tle_line2": "2 42939  64.0765 197.9063 0006299 223.6863 136.3303  2.13102066 64200"
      },
      "geometry": {
        "type": "Point",
        "coordinates": [
          -138.32230636421517,
          39.66609229963725
        ]
      }
    },
    {
      "type": "Feature",
      "properties": {
        "norad_id": 43508,
        "name": "COSMOS 2527 (756)",
        "group": "glo-ops",
        "lat": 61.60678680479239,
        "lon": 137.26389614168485,
        "alt_km": 19143.45469370433,
        "timestamp": "2025-12-23T05:02:12.291952+00:00",
        "meta_object_name": "COSMOS 2527 (756)",
        "meta_object_id": "2018-053A",
        "meta_epoch": "2025-12-22T15:25:09.190272",
        "meta_mean_motion": 2.13102397,
        "meta_eccentricity": 0.00089861,
        "meta_inclination": 65.4774,
        "meta_ra_of_asc_node": 79.8006,
        "meta_arg_of_pericenter": 227.3266,
        "meta_mean_anomaly": 132.6412,
        "meta_ephemeris_type": 0,
        "meta_classification_type": "U",
        "meta_norad_cat_id": 43508,
        "meta_element_set_no": 999,
        "meta_rev_at_epoch": 5851,
        "meta_bstar": 0,
        "meta_mean_motion_dot": 0,
        "meta_mean_motion_ddot": 0,
        "tle_line1": "1 43508U 18053A   25356.64246748  .00000000  00000+0  00000+0 0  9997",
        "tle_line2": "2 43508  65.4774  79.8006 0008986 227.3266 132.6412  2.13102397 58510"
      },
      "geometry": {
        "type": "Point",
        "coordinates": [
          137.26389614168485,
          61.60678680479239
        ]
      }
    },
    {
      "type": "Feature",
      "properties": {
        "norad_id": 43687,
        "name": "COSMOS 2529 (757)",
        "group": "glo-ops",
        "lat": 0.5436275607724429,
        "lon": -161.1985537543379,
        "alt_km": 19135.48490699959,
        "timestamp": "2025-12-23T05:02:12.291979+00:00",
        "meta_object_name": "COSMOS 2529 (757)",
        "meta_object_id": "2018-086A",
        "meta_epoch": "2025-12-21T19:13:53.194368",
        "meta_mean_motion": 2.13102139,
        "meta_eccentricity": 0.00069117,
        "meta_inclination": 64.2926,
        "meta_ra_of_asc_node": 198.5821,
        "meta_arg_of_pericenter": 253.6836,
        "meta_mean_anomaly": 106.3102,
        "meta_ephemeris_type": 0,
        "meta_classification_type": "U",
        "meta_norad_cat_id": 43687,
        "meta_element_set_no": 999,
        "meta_rev_at_epoch": 5550,
        "meta_bstar": 0,
        "meta_mean_motion_dot": 9.6e-07,
        "meta_mean_motion_ddot": 0,
        "tle_line1": "1 43687U 18086A   25355.80131012  .00000096  00000+0  00000+0 0  9990",
        "tle_line2": "2 43687  64.2926 198.5821 0006911 253.6836 106.3102  2.13102139 55503"
      },
      "geometry": {
        "type": "Point",
        "coordinates": [
          -161.1985537543379,
          0.5436275607724429
        ]
      }
    },
    {
      "type": "Feature",
      "properties": {
        "norad_id": 44299,
        "name": "COSMOS 2534 (758)",
        "group": "glo-ops",
        "lat": 39.63291907518171,
        "lon": -4.902627733610194,
        "alt_km": 19144.378597411287,
        "timestamp": "2025-12-23T05:02:12.291993+00:00",
        "meta_object_name": "COSMOS 2534 (758)",
        "meta_object_id": "2019-030A",
        "meta_epoch": "2025-12-21T10:55:51.060576",
        "meta_mean_motion": 2.13102432,
        "meta_eccentricity": 0.00087289,
        "meta_inclination": 64.366,
        "meta_ra_of_asc_node": 198.5992,
        "meta_arg_of_pericenter": 284.1192,
        "meta_mean_anomaly": 304.9695,
        "meta_ephemeris_type": 0,
        "meta_classification_type": "U",
        "meta_norad_cat_id": 44299,
        "meta_element_set_no": 999,
        "meta_rev_at_epoch": 5113,
        "meta_bstar": 0,
        "meta_mean_motion_dot": 9.7e-07,
        "meta_mean_motion_ddot": 0,
        "tle_line1": "1 44299U 19030A   25355.45545209  .00000097  00000+0  00000+0 0  9999",
        "tle_line2": "2 44299  64.3660 198.5992 0008728 284.1192 304.9695  2.13102432 51134"
      },
      "geometry": {
        "type": "Point",
        "coordinates": [
          -4.902627733610194,
          39.63291907518171
        ]
      }
    },
    {
      "type": "Feature",
      "properties": {
        "norad_id": 44850,
        "name": "COSMOS 2544 (759)",
        "group": "glo-ops",
        "lat": 53.75323027957632,
        "lon": -138.83857893566272,
        "alt_km": 19148.576270391823,
        "timestamp": "2025-12-23T05:02:12.292005+00:00",
        "meta_object_name": "COSMOS 2544 (759)",
        "meta_object_id": "2019-088A",
        "meta_epoch": "2025-12-22T02:49:35.422176",
        "meta_mean_motion": 2.13102165,
        "meta_eccentricity": 0.00143119,
        "meta_inclination": 65.4645,
        "meta_ra_of_asc_node": 79.6449,
        "meta_arg_of_pericenter": 250.3028,
        "meta_mean_anomaly": 109.5843,
        "meta_ephemeris_type": 0,
        "meta_classification_type": "U",
        "meta_norad_cat_id": 44850,
        "meta_element_set_no": 999,
        "meta_rev_at_epoch": 4694,
        "meta_bstar": 0,
        "meta_mean_motion_dot": -3e-08,
        "meta_mean_motion_ddot": 0,
        "tle_line1": "1 44850U 19088A   25356.11777109 -.00000003  00000+0  00000+0 0  9993",
        "tle_line2": "2 44850  65.4645  79.6449 0014311 250.3028 109.5843  2.13102165 46946"
      },
      "geometry": {
        "type": "Point",
        "coordinates": [
          -138.83857893566272,
          53.75323027957632
        ]
      }
    },
    {
      "type": "Feature",
      "properties": {
        "norad_id": 45358,
        "name": "COSMOS 2545 (760)",
        "group": "glo-ops",
        "lat": -28.845462884528008,
        "lon": -56.66970102232363,
        "alt_km": 19127.380297763564,
        "timestamp": "2025-12-23T05:02:12.292016+00:00",
        "meta_object_name": "COSMOS 2545 (760)",
        "meta_object_id": "2020-018A",
        "meta_epoch": "2025-12-22T07:31:25.141152",
        "meta_mean_motion": 2.13102698,
        "meta_eccentricity": 0.00113434,
        "meta_inclination": 64.464,
        "meta_ra_of_asc_node": 318.6341,
        "meta_arg_of_pericenter": 250.3607,
        "meta_mean_anomaly": 109.513,
        "meta_ephemeris_type": 0,
        "meta_classification_type": "U",
        "meta_norad_cat_id": 45358,
        "meta_element_set_no": 999,
        "meta_rev_at_epoch": 4489,
        "meta_bstar": 0,
        "meta_mean_motion_dot": -4.2e-07,
        "meta_mean_motion_ddot": 0,
        "tle_line1": "1 45358U 20018A   25356.31348543 -.00000042  00000+0  00000+0 0  9993",
        "tle_line2": "2 45358  64.4640 318.6341 0011343 250.3607 109.5130  2.13102698 44898"
      },
      "geometry": {
        "type": "Point",
        "coordinates": [
          -56.66970102232363,
          -28.845462884528008
        ]
      }
    }
  ]
}